 Automated mail xmit by MAIL_REQUEST, PID= 432 Mon Jul 31 11:18:14 2017
++++++++++++++++++++++++++++++++ (part 1 of 1)  +++++++++++++++++++++++++++++++

*******************************************************************************
 Revised: Jun 17, 2016            Rhea  / (Saturn)                          605
                        http://ssd.jpl.nasa.gov/?sat_phys_par
                         http://ssd.jpl.nasa.gov/?sat_elem

 SATELLITE PHYSICAL PROPERTIES:
  Mean Radius (km)        = 764.5  +- 2     Density (g/cm^3)  =  1.233 +- 0.010
  Mass (10^19 kg)         = 230.9           Geometric Albedo  =  0.6
  GM (km^3/s^2)           = 153.94 +- 0.16  V(1,0)            = +0.1

 SATELLITE ORBITAL DATA (mean values referred to local Laplace plane):
  Semi-major axis, a (km) = 527.07(10^3)    Orbital period    = 4.518 d
  Eccentricity, e         = 0.001           Rotational period = Synchronous
  Inclination, i  (deg)   = 0.331
*******************************************************************************
 
 
*******************************************************************************
Ephemeris / MAIL_REQUEST Mon Jul 31 11:18:14 2017 Pasadena, USA  / Horizons    
*******************************************************************************
Target body name: Rhea (605)                      {source: sat389}
Center body name: Solar System Barycenter (0)     {source: DE431mx}
Center-site name: BODY CENTER
*******************************************************************************
Start time      : A.D. 2017-Jul-10 00:00:00.0000 TDB
Stop  time      : A.D. 2020-Aug-13 00:00:00.0000 TDB
Step-size       : 1440 minutes
*******************************************************************************
Center geodetic : 0.00000000,0.00000000,0.0000000 {E-lon(deg),Lat(deg),Alt(km)}
Center cylindric: 0.00000000,0.00000000,0.0000000 {E-lon(deg),Dxy(km),Dz(km)}
Center radii    : (undefined)                                                  
Output units    : KM-S                                                         
Output type     : GEOMETRIC cartesian states
Output format   : 3 (position, velocity, LT, range, range-rate)
Reference frame : ICRF/J2000.0                                                 
Coordinate systm: Ecliptic and Mean Equinox of Reference Epoch                 
*******************************************************************************
            JDTDB,            Calendar Date (TDB),                      X,                      Y,                      Z,                     VX,                     VY,                     VZ,                     LT,                     RG,                     RR,
**************************************************************************************************************************************************************************************************************************************************************************
$$SOE
2458334.500000000, A.D. 2018-Aug-04 00:00:00.0000,  1.758180735859891E+08, -1.493943111921633E+09,  1.890682859034014E+07,  5.965595010356918E+00, -5.781003095002711E+00,  3.481010088879398E+00,  5.018045260903281E+03,  1.504372123121446E+09,  6.481882964655664E+00,
2458335.500000000, A.D. 2018-Aug-05 00:00:00.0000,  1.768125394968481E+08, -1.494424194148263E+09,  1.915457794109941E+07,  1.624430394565074E+01, -3.134466727316006E+00,  1.172581892205981E+00,  5.020037948993386E+03,  1.504969515982006E+09,  5.035902572647287E+00,
2458336.500000000, A.D. 2018-Aug-06 00:00:00.0000,  1.782624138254859E+08, -1.494269795237854E+09,  1.903062250448000E+07,  1.474053380557658E+01,  6.486849886596027E+00, -3.692355535865425E+00,  5.020091840567025E+03,  1.504985672269332E+09, -4.741366426512175E+00,
2458337.500000000, A.D. 2018-Aug-07 00:00:00.0000,  1.790718822739154E+08, -1.493575416046046E+09,  1.868425180256987E+07,  3.896892385616267E+00,  7.274019700235728E+00, -3.113494413806769E+00,  5.018098341488038E+03,  1.504388036280422E+09, -6.796548638135458E+00,
2458338.500000000, A.D. 2018-Aug-08 00:00:00.0000,  1.791976488665612E+08, -1.493324108465010E+09,  1.863069944805241E+07,  1.549053209767677E+00, -2.047853875341425E+00,  1.950903538211456E+00,  5.017313841263014E+03,  1.504152849029661E+09,  2.241822003307912E+00,
2458339.500000000, A.D. 2018-Aug-09 00:00:00.0000,  1.797186284461904E+08, -1.493768849741248E+09,  1.890346390337259E+07,  1.151795666324209E+01, -6.161108171953404E+00,  3.186566840981774E+00,  5.019005278950252E+03,  1.504659929291472E+09,  7.532266774567308E+00,
2458340.500000000, A.D. 2018-Aug-10 00:00:00.0000,  1.810641519430614E+08, -1.494020623680287E+09,  1.900112238180327E+07,  1.746123336386403E+01,  1.683868114124694E+00, -1.431566022317524E+00,  5.020381093810468E+03,  1.505072388210169E+09,  4.110555508868519E-01,
2458341.500000000, A.D. 2018-Aug-11 00:00:00.0000,  1.823106295914836E+08, -1.493505200619276E+09,  1.870896139299148E+07,  9.596681499099025E+00,  8.635618594447138E+00, -4.329948516428022E+00,  5.019164306478007E+03,  1.504707604544907E+09, -7.462428608051880E+00,
2458342.500000000, A.D. 2018-Aug-12 00:00:00.0000,  1.826952185612902E+08, -1.492908238144830E+09,  1.845295375002462E+07,  8.468948786496604E-01,  3.259164469492726E+00, -7.356153159877062E-01,  5.017332988902383E+03,  1.504158589347533E+09, -3.140948135312232E+00,
2458343.500000000, A.D. 2018-Aug-13 00:00:00.0000,  1.828722386756863E+08, -1.493048415887931E+09,  1.859944081282288E+07,  5.580231088661419E+00, -5.579287567939343E+00,  3.433792306621243E+00,  5.017874838983281E+03,  1.504321031915152E+09,  6.258293431815671E+00,
2458344.500000000, A.D. 2018-Aug-14 00:00:00.0000,  1.838347483719243E+08, -1.493532802677274E+09,  1.885377709208781E+07,  1.600977386263833E+01, -3.385862527511210E+00,  1.347360466514809E+00,  5.019880213224348E+03,  1.504922227988091E+09,  5.332802044096841E+00,
2458345.500000000, A.D. 2018-Aug-15 00:00:00.0000,  1.852876585715082E+08, -1.493403653451516E+09,  1.874462746743351E+07,  1.503209536447388E+01,  6.266776663343548E+00, -3.582010943545514E+00,  5.020042498836820E+03,  1.504970879990752E+09, -4.412516521021858E+00,
2458346.500000000, A.D. 2018-Aug-16 00:00:00.0000,  1.861293091301413E+08, -1.492708577895985E+09,  1.839689319218594E+07,  4.223161790899017E+00,  7.522250031539527E+00, -3.250035101331239E+00,  5.018074062516110E+03,  1.504380757627750E+09, -6.981120607966008E+00,
2458347.500000000, A.D. 2018-Aug-17 00:00:00.0000,  1.862624251217636E+08, -1.492425444246073E+09,  1.832804883290941E+07,  1.362777625569910E+00, -1.667765531392730E+00,  1.792623589950405E+00,  5.017189122676094E+03,  1.504115459337930E+09,  1.845407049698724E+00,
2458348.500000000, A.D. 2018-Aug-18 00:00:00.0000,  1.867530342746352E+08, -1.492853351846998E+09,  1.859677216999650E+07,  1.111687867818805E+01, -6.201899042729021E+00,  3.266933914317082E+00,  5.018819238847621E+03,  1.504604155871817E+09,  7.573680412749789E+00,
2458349.500000000, A.D. 2018-Aug-19 00:00:00.0000,  1.880796387206605E+08, -1.493124688418151E+09,  1.870828101822728E+07,  1.749504901712653E+01,  1.361938611213756E+00, -1.244680902971898E+00,  5.020272929650918E+03,  1.505039961410910E+09,  8.196676005605313E-01,
2458350.500000000, A.D. 2018-Aug-20 00:00:00.0000,  1.893489296780481E+08, -1.492626953321919E+09,  1.842517774612844E+07,  1.000266825535354E+01,  8.630528313608650E+00, -4.341981734657501E+00,  5.019145187568473E+03,  1.504701872840024E+09, -7.355720517955860E+00,
2458351.500000000, A.D. 2018-Aug-21 00:00:00.0000,  1.897601842162816E+08, -1.492010599354764E+09,  1.815857960702056E+07,  9.530069919038713E-01,  3.653487636742491E+00, -9.280769785484650E-01,  5.017267821945610E+03,  1.504139052785381E+09, -3.515002184268865E+00,
2458352.500000000, A.D. 2018-Aug-22 00:00:00.0000,  1.899232775051242E+08, -1.492119799218981E+09,  1.829215897007895E+07,  5.204998182795011E+00, -5.361353722071654E+00,  3.377142279827146E+00,  5.017703192054985E+03,  1.504269573460611E+09,  6.016280417233532E+00,
2458353.500000000, A.D. 2018-Aug-23 00:00:00.0000,  1.908536693817018E+08, -1.492606186651874E+09,  1.855241263049144E+07,  1.576351846482402E+01, -3.627140672681918E+00,  1.517880434600998E+00,  5.019715781830707E+03,  1.504872932696419E+09,  5.615476303560285E+00,
2458354.500000000, A.D. 2018-Aug-24 00:00:00.0000,  1.923083804965520E+08, -1.492502255447967E+09,  1.845816099604356E+07,  1.531223261845308E+01,  6.037275847214956E+00, -3.465740162877991E+00,  5.019985813481069E+03,  1.504953886148619E+09, -4.073180187382945E+00,
2458355.500000000, A.D. 2018-Aug-25 00:00:00.0000,  1.931821782256690E+08, -1.491807556855977E+09,  1.810962412290984E+07,  4.560226232635120E+00,  7.759622789337800E+00, -3.381920446946511E+00,  5.018047050636495E+03,  1.504372659669966E+09, -7.149927059383812E+00,
2458356.500000000, A.D. 2018-Aug-26 00:00:00.0000,  1.933241277617499E+08, -1.491492799605421E+09,  1.802545565283632E+07,  1.195600265157299E+00, -1.279012613708825E+00,  1.628060151827090E+00,  5.017063369639981E+03,  1.504077759526133E+09,  1.441496621234837E+00,
2458357.500000000, A.D. 2018-Aug-27 00:00:00.0000,  1.937851262750929E+08, -1.491902256449404E+09,  1.828922522220767E+07,  1.070920293547501E+01, -6.219030811782230E+00,  3.335591114987128E+00,  5.018626191330418E+03,  1.504546281682124E+09,  7.586656429453531E+00,
2458358.500000000, A.D. 2018-Aug-28 00:00:00.0000,  1.950911161095927E+08, -1.492191915465109E+09,  1.841409579193753E+07,  1.750367915939512E+01,  1.040650525878418E+00, -1.055789935481058E+00,  5.020152194106584E+03,  1.505003765805306E+09,  1.224263105877548E+00,
2458359.500000000, A.D. 2018-Aug-29 00:00:00.0000,  1.963818212919616E+08, -1.491712695233106E+09,  1.814061201665235E+07,  1.040417393384020E+01,  8.611028454806767E+00, -4.346069660102019E+00,  5.019116303013916E+03,  1.504693213468414E+09, -7.231261565474282E+00,
